STARLINK-5492           
1 55331U 23013A   25288.62805488  .00000074  00000+0  20552-4 0  9990
2 55331  43.0048   8.9652 0001251 266.0766  93.9934 15.02532518150960
STARLINK-5491           
1 55332U 23013B   25288.54296316  .00000706  00000+0  67330-4 0  9993
2 55332  43.0054 356.1682 0001252 267.8049  92.2650 15.02530693150029
STARLINK-5493           
1 55333U 23013C   25288.95489375  .00000255  00000+0  33928-4 0  9993
2 55333  43.0060   7.1161 0001487 273.3229  86.7443 15.02528617149933
STARLINK-5652           
1 55334U 23013D   25288.62470977  .00000725  00000+0  68777-4 0  9998
2 55334  43.0044   8.8398 0001185 260.5980  99.4728 15.02533417149888
STARLINK-5660           
1 55335U 23013E   25288.61917170  .00008945  00000+0  67711-3 0  9997
2 55335  43.0052   8.8974 0000670 275.6595  84.4171 15.02496157149880
STARLINK-5655           
1 55336U 23013F   25289.15123844  .00000830  00000+0  76473-4 0  9996
2 55336  43.0029 352.9063 0001053 264.3848  95.6874 15.02536169150119
STARLINK-5667           
1 55337U 23013G   25288.59944551  .00000786  00000+0  73262-4 0  9993
2 55337  43.0045 355.6956 0001185 259.8008 100.2700 15.02532701150032
STARLINK-5658           
1 55338U 23013H   25288.94934264  .00000639  00000+0  62364-4 0  9991
2 55338  43.0043   7.0724 0001254 266.3445  93.7254 15.02533683149934
STARLINK-5671           
1 55339U 23013J   25288.94377405 -.00010983  00000+0 -79798-3 0  9993
2 55339  43.0027   7.0304 0001368 264.3864  95.6822 15.02593410149936
STARLINK-5675           
1 55340U 23013K   25288.93157962 -.00001063  00000+0 -63615-4 0  9999
2 55340  43.0023   6.9435 0001106 257.1140 102.9578 15.02544603149934
STARLINK-5670           
1 55341U 23013L   25288.94601311  .00000946  00000+0  85136-4 0  9992
2 55341  43.0071   7.0490 0001350 269.7230  90.3458 15.02534491149932
STARLINK-5657           
1 55342U 23013M   25289.00002315 -.00008834  00000+0 -63958-3 0  9993
2 55342  43.0045   6.6810 0001407 261.0130  61.5850 15.02543131  5794
STARLINK-5661           
1 55343U 23013N   25288.93490495 -.00000284  00000+0 -59316-5 0  9991
2 55343  43.0058   6.9633 0001314 264.1954  95.8739 15.02548200149933
STARLINK-5653           
1 55345U 23013Q   25288.86869071  .00001160  00000+0  10093-3 0  9994
2 55345  43.0035 354.3032 0001057 260.3854  99.6869 15.02531688150079
STARLINK-5631           
1 55346U 23013R   25288.93268959  .00000597  00000+0  59299-4 0  9996
2 55346  43.0036   6.9449 0001146 273.5093  86.5618 15.02535384149930
STARLINK-5663           
1 55347U 23013S   25288.92048014 -.00003904  00000+0 -27394-3 0  9991
2 55347  43.0049   6.8535 0001482 272.2733  87.7939 15.02557106149935
STARLINK-5609           
1 55348U 23013T   25288.92936367  .00000934  00000+0  84211-4 0  9999
2 55348  43.0046   6.9230 0001066 273.5145  86.5575 15.02535521149935
