[{"OBJECT_NAME":"STARLINK-5492","OBJECT_ID":"2023-013A","EPOCH":"2025-10-15T15:04:23.941632","MEAN_MOTION":15.02532518,"ECCENTRICITY":0.0001251,"INCLINATION":43.0048,"RA_OF_ASC_NODE":8.9652,"ARG_OF_PERICENTER":266.0766,"MEAN_ANOMALY":93.9934,"EPHEMERIS_TYPE":0,"CLASSIFICATION_TYPE":"U","NORAD_CAT_ID":55331,"ELEMENT_SET_NO":999,"REV_AT_EPOCH":15096,"BSTAR":2.0552e-5,"MEAN_MOTION_DOT":7.4e-7,"MEAN_MOTION_DDOT":0},{"OBJECT_NAME":"STARLINK-5491","OBJECT_ID":"2023-013B","EPOCH":"2025-10-15T13:01:52.017024","MEAN_MOTION":15.02530693,"ECCENTRICITY":0.0001252,"INCLINATION":43.0054,"RA_OF_ASC_NODE":356.1682,"ARG_OF_PERICENTER":267.8049,"MEAN_ANOMALY":92.265,"EPHEMERIS_TYPE":0,"CLASSIFICATION_TYPE":"U","NORAD_CAT_ID":55332,"ELEMENT_SET_NO":999,"REV_AT_EPOCH":15002,"BSTAR":6.733e-5,"MEAN_MOTION_DOT":7.06e-6,"MEAN_MOTION_DDOT":0},{"OBJECT_NAME":"STARLINK-5493","OBJECT_ID":"2023-013C","EPOCH":"2025-10-15T22:55:02.820000","MEAN_MOTION":15.02528617,"ECCENTRICITY":0.0001487,"INCLINATION":43.006,"RA_OF_ASC_NODE":7.1161,"ARG_OF_PERICENTER":273.3229,"MEAN_ANOMALY":86.7443,"EPHEMERIS_TYPE":0,"CLASSIFICATION_TYPE":"U","NORAD_CAT_ID":55333,"ELEMENT_SET_NO":999,"REV_AT_EPOCH":14993,"BSTAR":3.3928e-5,"MEAN_MOTION_DOT":2.55e-6,"MEAN_MOTION_DDOT":0},{"OBJECT_NAME":"STARLINK-5652","OBJECT_ID":"2023-013D","EPOCH":"2025-10-15T14:59:34.924128","MEAN_MOTION":15.02533417,"ECCENTRICITY":0.0001185,"INCLINATION":43.0044,"RA_OF_ASC_NODE":8.8398,"ARG_OF_PERICENTER":260.598,"MEAN_ANOMALY":99.4728,"EPHEMERIS_TYPE":0,"CLASSIFICATION_TYPE":"U","NORAD_CAT_ID":55334,"ELEMENT_SET_NO":999,"REV_AT_EPOCH":14988,"BSTAR":6.8777e-5,"MEAN_MOTION_DOT":7.25e-6,"MEAN_MOTION_DDOT":0},{"OBJECT_NAME":"STARLINK-5660","OBJECT_ID":"2023-013E","EPOCH":"2025-10-15T14:51:36.434880","MEAN_MOTION":15.02496157,"ECCENTRICITY":6.7e-5,"INCLINATION":43.0052,"RA_OF_ASC_NODE":8.8974,"ARG_OF_PERICENTER":275.6595,"MEAN_ANOMALY":84.4171,"EPHEMERIS_TYPE":0,"CLASSIFICATION_TYPE":"U","NORAD_CAT_ID":55335,"ELEMENT_SET_NO":999,"REV_AT_EPOCH":14988,"BSTAR":0.00067711,"MEAN_MOTION_DOT":8.945e-5,"MEAN_MOTION_DDOT":0},{"OBJECT_NAME":"STARLINK-5655","OBJECT_ID":"2023-013F","EPOCH":"2025-10-16T03:37:47.001216","MEAN_MOTION":15.02536169,"ECCENTRICITY":0.0001053,"INCLINATION":43.0029,"RA_OF_ASC_NODE":352.9063,"ARG_OF_PERICENTER":264.3848,"MEAN_ANOMALY":95.6874,"EPHEMERIS_TYPE":0,"CLASSIFICATION_TYPE":"U","NORAD_CAT_ID":55336,"ELEMENT_SET_NO":999,"REV_AT_EPOCH":15011,"BSTAR":7.6473e-5,"MEAN_MOTION_DOT":8.3e-6,"MEAN_MOTION_DDOT":0},{"OBJECT_NAME":"STARLINK-5667","OBJECT_ID":"2023-013G","EPOCH":"2025-10-15T14:23:12.092064","MEAN_MOTION":15.02532701,"ECCENTRICITY":0.0001185,"INCLINATION":43.0045,"RA_OF_ASC_NODE":355.6956,"ARG_OF_PERICENTER":259.8008,"MEAN_ANOMALY":100.27,"EPHEMERIS_TYPE":0,"CLASSIFICATION_TYPE":"U","NORAD_CAT_ID":55337,"ELEMENT_SET_NO":999,"REV_AT_EPOCH":15003,"BSTAR":7.3262e-5,"MEAN_MOTION_DOT":7.86e-6,"MEAN_MOTION_DDOT":0},{"OBJECT_NAME":"STARLINK-5658","OBJECT_ID":"2023-013H","EPOCH":"2025-10-15T22:47:03.204096","MEAN_MOTION":15.02533683,"ECCENTRICITY":0.0001254,"INCLINATION":43.0043,"RA_OF_ASC_NODE":7.0724,"ARG_OF_PERICENTER":266.3445,"MEAN_ANOMALY":93.7254,"EPHEMERIS_TYPE":0,"CLASSIFICATION_TYPE":"U","NORAD_CAT_ID":55338,"ELEMENT_SET_NO":999,"REV_AT_EPOCH":14993,"BSTAR":6.2364e-5,"MEAN_MOTION_DOT":6.39e-6,"MEAN_MOTION_DDOT":0},{"OBJECT_NAME":"STARLINK-5671","OBJECT_ID":"2023-013J","EPOCH":"2025-10-15T22:39:02.077920","MEAN_MOTION":15.0259341,"ECCENTRICITY":0.0001368,"INCLINATION":43.0027,"RA_OF_ASC_NODE":7.0304,"ARG_OF_PERICENTER":264.3864,"MEAN_ANOMALY":95.6822,"EPHEMERIS_TYPE":0,"CLASSIFICATION_TYPE":"U","NORAD_CAT_ID":55339,"ELEMENT_SET_NO":999,"REV_AT_EPOCH":14993,"BSTAR":-0.00079798,"MEAN_MOTION_DOT":-0.00010983,"MEAN_MOTION_DDOT":0},{"OBJECT_NAME":"STARLINK-5675","OBJECT_ID":"2023-013K","EPOCH":"2025-10-15T22:21:28.479168","MEAN_MOTION":15.02544603,"ECCENTRICITY":0.0001106,"INCLINATION":43.0023,"RA_OF_ASC_NODE":6.9435,"ARG_OF_PERICENTER":257.114,"MEAN_ANOMALY":102.9578,"EPHEMERIS_TYPE":0,"CLASSIFICATION_TYPE":"U","NORAD_CAT_ID":55340,"ELEMENT_SET_NO":999,"REV_AT_EPOCH":14993,"BSTAR":-6.3615e-5,"MEAN_MOTION_DOT":-1.063e-5,"MEAN_MOTION_DDOT":0},{"OBJECT_NAME":"STARLINK-5670","OBJECT_ID":"2023-013L","EPOCH":"2025-10-15T22:42:15.532704","MEAN_MOTION":15.02534491,"ECCENTRICITY":0.000135,"INCLINATION":43.0071,"RA_OF_ASC_NODE":7.049,"ARG_OF_PERICENTER":269.723,"MEAN_ANOMALY":90.3458,"EPHEMERIS_TYPE":0,"CLASSIFICATION_TYPE":"U","NORAD_CAT_ID":55341,"ELEMENT_SET_NO":999,"REV_AT_EPOCH":14993,"BSTAR":8.5136e-5,"MEAN_MOTION_DOT":9.46e-6,"MEAN_MOTION_DDOT":0},{"OBJECT_NAME":"STARLINK-5657","OBJECT_ID":"2023-013M","EPOCH":"2025-10-16T00:00:02.000160","MEAN_MOTION":15.02543131,"ECCENTRICITY":0.0001407,"INCLINATION":43.0045,"RA_OF_ASC_NODE":6.681,"ARG_OF_PERICENTER":261.013,"MEAN_ANOMALY":61.585,"EPHEMERIS_TYPE":0,"CLASSIFICATION_TYPE":"U","NORAD_CAT_ID":55342,"ELEMENT_SET_NO":999,"REV_AT_EPOCH":579,"BSTAR":-0.00063958,"MEAN_MOTION_DOT":-8.834e-5,"MEAN_MOTION_DDOT":0},{"OBJECT_NAME":"STARLINK-5661","OBJECT_ID":"2023-013N","EPOCH":"2025-10-15T22:26:15.787680","MEAN_MOTION":15.025482,"ECCENTRICITY":0.0001314,"INCLINATION":43.0058,"RA_OF_ASC_NODE":6.9633,"ARG_OF_PERICENTER":264.1954,"MEAN_ANOMALY":95.8739,"EPHEMERIS_TYPE":0,"CLASSIFICATION_TYPE":"U","NORAD_CAT_ID":55343,"ELEMENT_SET_NO":999,"REV_AT_EPOCH":14993,"BSTAR":-5.9316e-6,"MEAN_MOTION_DOT":-2.84e-6,"MEAN_MOTION_DDOT":0},{"OBJECT_NAME":"STARLINK-5653","OBJECT_ID":"2023-013Q","EPOCH":"2025-10-15T20:50:54.877344","MEAN_MOTION":15.02531688,"ECCENTRICITY":0.0001057,"INCLINATION":43.0035,"RA_OF_ASC_NODE":354.3032,"ARG_OF_PERICENTER":260.3854,"MEAN_ANOMALY":99.6869,"EPHEMERIS_TYPE":0,"CLASSIFICATION_TYPE":"U","NORAD_CAT_ID":55345,"ELEMENT_SET_NO":999,"REV_AT_EPOCH":15007,"BSTAR":0.00010093,"MEAN_MOTION_DOT":1.16e-5,"MEAN_MOTION_DDOT":0},{"OBJECT_NAME":"STARLINK-5631","OBJECT_ID":"2023-013R","EPOCH":"2025-10-15T22:23:04.380576","MEAN_MOTION":15.02535384,"ECCENTRICITY":0.0001146,"INCLINATION":43.0036,"RA_OF_ASC_NODE":6.9449,"ARG_OF_PERICENTER":273.5093,"MEAN_ANOMALY":86.5618,"EPHEMERIS_TYPE":0,"CLASSIFICATION_TYPE":"U","NORAD_CAT_ID":55346,"ELEMENT_SET_NO":999,"REV_AT_EPOCH":14993,"BSTAR":5.9299e-5,"MEAN_MOTION_DOT":5.97e-6,"MEAN_MOTION_DDOT":0},{"OBJECT_NAME":"STARLINK-5663","OBJECT_ID":"2023-013S","EPOCH":"2025-10-15T22:05:29.484096","MEAN_MOTION":15.02557106,"ECCENTRICITY":0.0001482,"INCLINATION":43.0049,"RA_OF_ASC_NODE":6.8535,"ARG_OF_PERICENTER":272.2733,"MEAN_ANOMALY":87.7939,"EPHEMERIS_TYPE":0,"CLASSIFICATION_TYPE":"U","NORAD_CAT_ID":55347,"ELEMENT_SET_NO":999,"REV_AT_EPOCH":14993,"BSTAR":-0.00027394,"MEAN_MOTION_DOT":-3.904e-5,"MEAN_MOTION_DDOT":0},{"OBJECT_NAME":"STARLINK-5609","OBJECT_ID":"2023-013T","EPOCH":"2025-10-15T22:18:17.021088","MEAN_MOTION":15.02535521,"ECCENTRICITY":0.0001066,"INCLINATION":43.0046,"RA_OF_ASC_NODE":6.923,"ARG_OF_PERICENTER":273.5145,"MEAN_ANOMALY":86.5575,"EPHEMERIS_TYPE":0,"CLASSIFICATION_TYPE":"U","NORAD_CAT_ID":55348,"ELEMENT_SET_NO":999,"REV_AT_EPOCH":14993,"BSTAR":8.4211e-5,"MEAN_MOTION_DOT":9.34e-6,"MEAN_MOTION_DDOT":0}]
